QZS-1R                  
1 49336U 21096A   24281.35365066 -.00000198  00000+0  00000+0 0  9991
2 49336  36.1758  88.8295 0745499 270.0550 280.3691  1.00284173 10808
